[{"OBJECT_NAME":"GPS BIIF-11","OBJECT_ID":"2015-062A","EPOCH":"2026-03-03T01:55:49.502784","MEAN_MOTION":2.00567044,"ECCENTRICITY":0.01114592,"INCLINATION":56.892,"RA_OF_ASC_NODE":34.899,"ARG_OF_PERICENTER":231.4865,"MEAN_ANOMALY":127.4993,"EPHEMERIS_TYPE":0,"CLASSIFICATION_TYPE":"U","NORAD_CAT_ID":41019,"ELEMENT_SET_NO":999,"REV_AT_EPOCH":7570,"BSTAR":0,"MEAN_MOTION_DOT":-7.4e-7,"MEAN_MOTION_DDOT":0},{"OBJECT_NAME":"ELEKTRO-L 2","OBJECT_ID":"2015-074A","EPOCH":"2026-03-03T20:51:04.605984","MEAN_MOTION":1.00270829,"ECCENTRICITY":0.0003468,"INCLINATION":6.4296,"RA_OF_ASC_NODE":71.8188,"ARG_OF_PERICENTER":237.1165,"MEAN_ANOMALY":150.951,"EPHEMERIS_TYPE":0,"CLASSIFICATION_TYPE":"U","NORAD_CAT_ID":41105,"ELEMENT_SET_NO":999,"REV_AT_EPOCH":3745,"BSTAR":0,"MEAN_MOTION_DOT":-1.28e-6,"MEAN_MOTION_DDOT":0},{"OBJECT_NAME":"GSAT0209 (GALILEO 12)","OBJECT_ID":"2015-079A","EPOCH":"2026-03-02T20:48:40.395744","MEAN_MOTION":1.70474497,"ECCENTRICITY":0.0004785,"INCLINATION":55.7583,"RA_OF_ASC_NODE":104.1775,"ARG_OF_PERICENTER":323.3337,"MEAN_ANOMALY":36.7202,"EPHEMERIS_TYPE":0,"CLASSIFICATION_TYPE":"U","NORAD_CAT_ID":41174,"ELEMENT_SET_NO":999,"REV_AT_EPOCH":6296,"BSTAR":0,"MEAN_MOTION_DOT":1.5e-7,"MEAN_MOTION_DDOT":0},{"OBJECT_NAME":"GSAT0208 (GALILEO 11)","OBJECT_ID":"2015-079B","EPOCH":"2026-03-03T02:05:47.446944","MEAN_MOTION":1.70474318,"ECCENTRICITY":0.0004164,"INCLINATION":55.7569,"RA_OF_ASC_NODE":104.1685,"ARG_OF_PERICENTER":323.7694,"MEAN_ANOMALY":36.289,"EPHEMERIS_TYPE":0,"CLASSIFICATION_TYPE":"U","NORAD_CAT_ID":41175,"ELEMENT_SET_NO":999,"REV_AT_EPOCH":6338,"BSTAR":0,"MEAN_MOTION_DOT":1.5e-7,"MEAN_MOTION_DDOT":0},{"OBJECT_NAME":"GPS BIIF-12","OBJECT_ID":"2016-007A","EPOCH":"2026-03-03T15:56:39.614496","MEAN_MOTION":2.00556778,"ECCENTRICITY":0.0095416,"INCLINATION":55.4551,"RA_OF_ASC_NODE":93.6421,"ARG_OF_PERICENTER":245.9853,"MEAN_ANOMALY":113.0821,"EPHEMERIS_TYPE":0,"CLASSIFICATION_TYPE":"U","NORAD_CAT_ID":41328,"ELEMENT_SET_NO":999,"REV_AT_EPOCH":7372,"BSTAR":0,"MEAN_MOTION_DOT":1.6e-7,"MEAN_MOTION_DDOT":0},{"OBJECT_NAME":"GSAT0211 (GALILEO 14)","OBJECT_ID":"2016-030A","EPOCH":"2026-03-02T14:59:35.994624","MEAN_MOTION":1.70473766,"ECCENTRICITY":0.00036317,"INCLINATION":55.1322,"RA_OF_ASC_NODE":224.6224,"ARG_OF_PERICENTER":25.7212,"MEAN_ANOMALY":334.2388,"EPHEMERIS_TYPE":0,"CLASSIFICATION_TYPE":"U","NORAD_CAT_ID":41549,"ELEMENT_SET_NO":999,"REV_AT_EPOCH":6085,"BSTAR":0,"MEAN_MOTION_DOT":1.1e-7,"MEAN_MOTION_DDOT":0},{"OBJECT_NAME":"GSAT0210 (GALILEO 13)","OBJECT_ID":"2016-030B","EPOCH":"2026-03-02T07:05:24.262080","MEAN_MOTION":1.70473885,"ECCENTRICITY":0.0001173,"INCLINATION":55.1304,"RA_OF_ASC_NODE":224.6297,"ARG_OF_PERICENTER":192.8511,"MEAN_ANOMALY":167.0898,"EPHEMERIS_TYPE":0,"CLASSIFICATION_TYPE":"U","NORAD_CAT_ID":41550,"ELEMENT_SET_NO":999,"REV_AT_EPOCH":6084,"BSTAR":0,"MEAN_MOTION_DOT":1.2e-7,"MEAN_MOTION_DDOT":0},{"OBJECT_NAME":"INSAT-3DR","OBJECT_ID":"2016-054A","EPOCH":"2026-03-03T18:25:25.774752","MEAN_MOTION":1.0027234,"ECCENTRICITY":0.0013302,"INCLINATION":0.0454,"RA_OF_ASC_NODE":96.9374,"ARG_OF_PERICENTER":184.7888,"MEAN_ANOMALY":230.1313,"EPHEMERIS_TYPE":0,"CLASSIFICATION_TYPE":"U","NORAD_CAT_ID":41752,"ELEMENT_SET_NO":999,"REV_AT_EPOCH":3476,"BSTAR":0,"MEAN_MOTION_DOT":-9.1e-7,"MEAN_MOTION_DDOT":0},{"OBJECT_NAME":"GSAT0207 (GALILEO 15)","OBJECT_ID":"2016-069A","EPOCH":"2026-02-28T05:27:34.324704","MEAN_MOTION":1.70474383,"ECCENTRICITY":0.00050316,"INCLINATION":55.4267,"RA_OF_ASC_NODE":104.1007,"ARG_OF_PERICENTER":309.1503,"MEAN_ANOMALY":50.8842,"EPHEMERIS_TYPE":0,"CLASSIFICATION_TYPE":"U","NORAD_CAT_ID":41859,"ELEMENT_SET_NO":999,"REV_AT_EPOCH":5754,"BSTAR":0,"MEAN_MOTION_DOT":8.0e-8,"MEAN_MOTION_DDOT":0},{"OBJECT_NAME":"GSAT0212 (GALILEO 16)","OBJECT_ID":"2016-069B","EPOCH":"2026-03-03T00:20:06.105120","MEAN_MOTION":1.70474657,"ECCENTRICITY":0.0003622,"INCLINATION":55.4261,"RA_OF_ASC_NODE":104.0186,"ARG_OF_PERICENTER":335.7588,"MEAN_ANOMALY":24.3106,"EPHEMERIS_TYPE":0,"CLASSIFICATION_TYPE":"U","NORAD_CAT_ID":41860,"ELEMENT_SET_NO":999,"REV_AT_EPOCH":5784,"BSTAR":0,"MEAN_MOTION_DOT":1.4e-7,"MEAN_MOTION_DDOT":0},{"OBJECT_NAME":"GSAT0213 (GALILEO 17)","OBJECT_ID":"2016-069C","EPOCH":"2026-02-27T06:36:27.411264","MEAN_MOTION":1.70474834,"ECCENTRICITY":0.00051302,"INCLINATION":55.426,"RA_OF_ASC_NODE":104.1303,"ARG_OF_PERICENTER":291.6331,"MEAN_ANOMALY":68.3872,"EPHEMERIS_TYPE":0,"CLASSIFICATION_TYPE":"U","NORAD_CAT_ID":41861,"ELEMENT_SET_NO":999,"REV_AT_EPOCH":5764,"BSTAR":0,"MEAN_MOTION_DOT":4.0e-8,"MEAN_MOTION_DDOT":0},{"OBJECT_NAME":"GSAT0214 (GALILEO 18)","OBJECT_ID":"2016-069D","EPOCH":"2026-02-28T00:11:27.536640","MEAN_MOTION":1.70474701,"ECCENTRICITY":0.00041329,"INCLINATION":55.425,"RA_OF_ASC_NODE":104.1026,"ARG_OF_PERICENTER":296.1582,"MEAN_ANOMALY":63.8775,"EPHEMERIS_TYPE":0,"CLASSIFICATION_TYPE":"U","NORAD_CAT_ID":41862,"ELEMENT_SET_NO":999,"REV_AT_EPOCH":5778,"BSTAR":0,"MEAN_MOTION_DOT":7.0e-8,"MEAN_MOTION_DDOT":0},{"OBJECT_NAME":"GOES 16","OBJECT_ID":"2016-071A","EPOCH":"2026-03-03T13:34:41.141280","MEAN_MOTION":1.00271662,"ECCENTRICITY":0.0002571,"INCLINATION":0.1452,"RA_OF_ASC_NODE":90.1946,"ARG_OF_PERICENTER":216.7975,"MEAN_ANOMALY":313.3003,"EPHEMERIS_TYPE":0,"CLASSIFICATION_TYPE":"U","NORAD_CAT_ID":41866,"ELEMENT_SET_NO":999,"REV_AT_EPOCH":3404,"BSTAR":0,"MEAN_MOTION_DOT":-1.05e-6,"MEAN_MOTION_DDOT":0},{"OBJECT_NAME":"GSAT-17","OBJECT_ID":"2017-040B","EPOCH":"2026-03-03T17:07:17.256288","MEAN_MOTION":1.00270221,"ECCENTRICITY":0.0005104,"INCLINATION":0.0413,"RA_OF_ASC_NODE":297.9862,"ARG_OF_PERICENTER":349.1751,"MEAN_ANOMALY":224.6312,"EPHEMERIS_TYPE":0,"CLASSIFICATION_TYPE":"U","NORAD_CAT_ID":42815,"ELEMENT_SET_NO":999,"REV_AT_EPOCH":3173,"BSTAR":0,"MEAN_MOTION_DOT":-2.71e-6,"MEAN_MOTION_DDOT":0},{"OBJECT_NAME":"GSAT0215 (GALILEO 19)","OBJECT_ID":"2017-079A","EPOCH":"2026-03-02T20:15:45.963072","MEAN_MOTION":1.70474455,"ECCENTRICITY":6.129e-5,"INCLINATION":55.1089,"RA_OF_ASC_NODE":224.4297,"ARG_OF_PERICENTER":12.6993,"MEAN_ANOMALY":347.2429,"EPHEMERIS_TYPE":0,"CLASSIFICATION_TYPE":"U","NORAD_CAT_ID":43055,"ELEMENT_SET_NO":999,"REV_AT_EPOCH":5117,"BSTAR":0,"MEAN_MOTION_DOT":1.0e-7,"MEAN_MOTION_DDOT":0},{"OBJECT_NAME":"GSAT0216 (GALILEO 20)","OBJECT_ID":"2017-079B","EPOCH":"2026-03-01T23:05:47.137632","MEAN_MOTION":1.70474524,"ECCENTRICITY":0.00016887,"INCLINATION":55.1088,"RA_OF_ASC_NODE":224.454,"ARG_OF_PERICENTER":322.1798,"MEAN_ANOMALY":37.7539,"EPHEMERIS_TYPE":0,"CLASSIFICATION_TYPE":"U","NORAD_CAT_ID":43056,"ELEMENT_SET_NO":999,"REV_AT_EPOCH":5117,"BSTAR":0,"MEAN_MOTION_DOT":1.3e-7,"MEAN_MOTION_DDOT":0},{"OBJECT_NAME":"GSAT0217 (GALILEO 21)","OBJECT_ID":"2017-079C","EPOCH":"2026-03-03T08:33:00.443232","MEAN_MOTION":1.70474491,"ECCENTRICITY":0.0002107,"INCLINATION":55.1084,"RA_OF_ASC_NODE":224.4135,"ARG_OF_PERICENTER":356.8681,"MEAN_ANOMALY":3.0693,"EPHEMERIS_TYPE":0,"CLASSIFICATION_TYPE":"U","NORAD_CAT_ID":43057,"ELEMENT_SET_NO":999,"REV_AT_EPOCH":5118,"BSTAR":0,"MEAN_MOTION_DOT":9.0e-8,"MEAN_MOTION_DDOT":0}]
